{"fetched_at":"2026-03-29T16:36:15Z","count":15609,"tles":[{"name":"STARLINK-30467","line1":"1 57895U 23146E   26087.67426753  .00004798  00000+0  18835-3 0  9998","line2":"2 57895  42.9987 206.6510 0000997 270.3150  89.7587 15.26755614139951","category":"Starlink"}]}